[{"OBJECT_NAME":"SL-8 R/B","OBJECT_ID":"1988-053B","EPOCH":"2026-03-09T14:20:34.971936","MEAN_MOTION":14.38915667,"ECCENTRICITY":0.0021414,"INCLINATION":74.046,"RA_OF_ASC_NODE":112.6362,"ARG_OF_PERICENTER":291.898,"MEAN_ANOMALY":184.3804,"EPHEMERIS_TYPE":0,"CLASSIFICATION_TYPE":"U","NORAD_CAT_ID":19257,"ELEMENT_SET_NO":999,"REV_AT_EPOCH":97658,"BSTAR":0.00010511,"MEAN_MOTION_DOT":2.98e-6,"MEAN_MOTION_DDOT":0},{"OBJECT_NAME":"COSMOS 1975","OBJECT_ID":"1988-093A","EPOCH":"2026-03-09T14:15:08.474112","MEAN_MOTION":15.28069249,"ECCENTRICITY":0.0012117,"INCLINATION":82.5181,"RA_OF_ASC_NODE":117.7814,"ARG_OF_PERICENTER":163.8427,"MEAN_ANOMALY":196.3201,"EPHEMERIS_TYPE":0,"CLASSIFICATION_TYPE":"U","NORAD_CAT_ID":19573,"ELEMENT_SET_NO":999,"REV_AT_EPOCH":1939,"BSTAR":0.0002787,"MEAN_MOTION_DOT":7.676e-5,"MEAN_MOTION_DDOT":0},{"OBJECT_NAME":"SL-14 R/B","OBJECT_ID":"1988-093B","EPOCH":"2026-03-09T20:38:33.960192","MEAN_MOTION":14.85656754,"ECCENTRICITY":0.0021757,"INCLINATION":82.5306,"RA_OF_ASC_NODE":41.8836,"ARG_OF_PERICENTER":40.9727,"MEAN_ANOMALY":357.7447,"EPHEMERIS_TYPE":0,"CLASSIFICATION_TYPE":"U","NORAD_CAT_ID":19574,"ELEMENT_SET_NO":999,"REV_AT_EPOCH":104,"BSTAR":8.4662e-5,"MEAN_MOTION_DOT":7.61e-6,"MEAN_MOTION_DDOT":0},{"OBJECT_NAME":"SL-16 R/B","OBJECT_ID":"1988-102B","EPOCH":"2026-03-09T14:56:14.556480","MEAN_MOTION":14.16151991,"ECCENTRICITY":0.0013948,"INCLINATION":71.0001,"RA_OF_ASC_NODE":151.6391,"ARG_OF_PERICENTER":1.7744,"MEAN_ANOMALY":358.3426,"EPHEMERIS_TYPE":0,"CLASSIFICATION_TYPE":"U","NORAD_CAT_ID":19650,"ELEMENT_SET_NO":999,"REV_AT_EPOCH":92688,"BSTAR":0.00018009,"MEAN_MOTION_DOT":3.09e-6,"MEAN_MOTION_DDOT":0},{"OBJECT_NAME":"INTERCOSMOS 24","OBJECT_ID":"1989-080A","EPOCH":"2026-03-09T13:32:31.498080","MEAN_MOTION":12.5955753,"ECCENTRICITY":0.1186701,"INCLINATION":82.6027,"RA_OF_ASC_NODE":104.486,"ARG_OF_PERICENTER":293.1117,"MEAN_ANOMALY":54.9307,"EPHEMERIS_TYPE":0,"CLASSIFICATION_TYPE":"U","NORAD_CAT_ID":20261,"ELEMENT_SET_NO":999,"REV_AT_EPOCH":66678,"BSTAR":0.00026093,"MEAN_MOTION_DOT":8.76e-6,"MEAN_MOTION_DDOT":0},{"OBJECT_NAME":"SL-14 R/B","OBJECT_ID":"1989-080C","EPOCH":"2026-03-09T19:06:04.868352","MEAN_MOTION":12.50493802,"ECCENTRICITY":0.1230576,"INCLINATION":82.5975,"RA_OF_ASC_NODE":173.1181,"ARG_OF_PERICENTER":184.5069,"MEAN_ANOMALY":174.4058,"EPHEMERIS_TYPE":0,"CLASSIFICATION_TYPE":"U","NORAD_CAT_ID":20262,"ELEMENT_SET_NO":999,"REV_AT_EPOCH":66016,"BSTAR":0.00021561,"MEAN_MOTION_DOT":7.31e-6,"MEAN_MOTION_DDOT":0},{"OBJECT_NAME":"DELTA 1 R/B","OBJECT_ID":"1989-089B","EPOCH":"2026-03-09T13:14:40.767936","MEAN_MOTION":14.50662814,"ECCENTRICITY":0.00704638,"INCLINATION":97.0705,"RA_OF_ASC_NODE":276.0125,"ARG_OF_PERICENTER":122.4096,"MEAN_ANOMALY":238.3945,"EPHEMERIS_TYPE":0,"CLASSIFICATION_TYPE":"U","NORAD_CAT_ID":20323,"ELEMENT_SET_NO":999,"REV_AT_EPOCH":89571,"BSTAR":0.00011170257,"MEAN_MOTION_DOT":4.18e-6,"MEAN_MOTION_DDOT":0},{"OBJECT_NAME":"ARIANE 40 R/B","OBJECT_ID":"1990-005H","EPOCH":"2026-03-09T17:51:25.049088","MEAN_MOTION":14.39870541,"ECCENTRICITY":0.0009857,"INCLINATION":98.3083,"RA_OF_ASC_NODE":129.4039,"ARG_OF_PERICENTER":198.4111,"MEAN_ANOMALY":161.6722,"EPHEMERIS_TYPE":0,"CLASSIFICATION_TYPE":"U","NORAD_CAT_ID":20443,"ELEMENT_SET_NO":999,"REV_AT_EPOCH":89281,"BSTAR":0.00012124,"MEAN_MOTION_DOT":3.39e-6,"MEAN_MOTION_DDOT":0},{"OBJECT_NAME":"DELTA 2 R/B(1)","OBJECT_ID":"1990-008B","EPOCH":"2026-03-09T08:59:25.462464","MEAN_MOTION":15.55957726,"ECCENTRICITY":0.00854397,"INCLINATION":35.6039,"RA_OF_ASC_NODE":176.922,"ARG_OF_PERICENTER":255.8292,"MEAN_ANOMALY":103.2939,"EPHEMERIS_TYPE":0,"CLASSIFICATION_TYPE":"U","NORAD_CAT_ID":20453,"ELEMENT_SET_NO":999,"REV_AT_EPOCH":92608,"BSTAR":0.00075711194,"MEAN_MOTION_DOT":0.00064698,"MEAN_MOTION_DDOT":0},{"OBJECT_NAME":"COSMOS 2058","OBJECT_ID":"1990-010A","EPOCH":"2026-03-09T10:47:18.236832","MEAN_MOTION":15.11318921,"ECCENTRICITY":0.00093745,"INCLINATION":82.467,"RA_OF_ASC_NODE":47.6646,"ARG_OF_PERICENTER":345.0233,"MEAN_ANOMALY":15.0718,"EPHEMERIS_TYPE":0,"CLASSIFICATION_TYPE":"U","NORAD_CAT_ID":20465,"ELEMENT_SET_NO":999,"REV_AT_EPOCH":94220,"BSTAR":0.00029631294,"MEAN_MOTION_DOT":5.023e-5,"MEAN_MOTION_DDOT":0},{"OBJECT_NAME":"SL-14 R/B","OBJECT_ID":"1990-010B","EPOCH":"2026-03-09T14:52:00.601824","MEAN_MOTION":14.83568711,"ECCENTRICITY":0.0018538,"INCLINATION":82.4987,"RA_OF_ASC_NODE":267.4549,"ARG_OF_PERICENTER":302.6174,"MEAN_ANOMALY":57.3252,"EPHEMERIS_TYPE":0,"CLASSIFICATION_TYPE":"U","NORAD_CAT_ID":20466,"ELEMENT_SET_NO":999,"REV_AT_EPOCH":92847,"BSTAR":6.0041e-5,"MEAN_MOTION_DOT":5.19e-6,"MEAN_MOTION_DDOT":0},{"OBJECT_NAME":"SL-14 R/B","OBJECT_ID":"1990-018B","EPOCH":"2026-03-09T12:03:10.669248","MEAN_MOTION":14.82144727,"ECCENTRICITY":0.00176767,"INCLINATION":82.5202,"RA_OF_ASC_NODE":223.2647,"ARG_OF_PERICENTER":92.6107,"MEAN_ANOMALY":267.7131,"EPHEMERIS_TYPE":0,"CLASSIFICATION_TYPE":"U","NORAD_CAT_ID":20511,"ELEMENT_SET_NO":999,"REV_AT_EPOCH":92255,"BSTAR":8.3952142e-5,"MEAN_MOTION_DOT":6.93e-6,"MEAN_MOTION_DDOT":0},{"OBJECT_NAME":"HST","OBJECT_ID":"1990-037B","EPOCH":"2026-03-09T03:50:04.164288","MEAN_MOTION":15.29473555,"ECCENTRICITY":0.00018372,"INCLINATION":28.4717,"RA_OF_ASC_NODE":43.6133,"ARG_OF_PERICENTER":120.9992,"MEAN_ANOMALY":239.0785,"EPHEMERIS_TYPE":0,"CLASSIFICATION_TYPE":"U","NORAD_CAT_ID":20580,"ELEMENT_SET_NO":999,"REV_AT_EPOCH":77323,"BSTAR":0.0003002261,"MEAN_MOTION_DOT":9.063e-5,"MEAN_MOTION_DDOT":0},{"OBJECT_NAME":"SL-16 R/B","OBJECT_ID":"1990-046B","EPOCH":"2026-03-09T20:07:32.727072","MEAN_MOTION":14.15012359,"ECCENTRICITY":0.0016219,"INCLINATION":70.9988,"RA_OF_ASC_NODE":297.6021,"ARG_OF_PERICENTER":299.3998,"MEAN_ANOMALY":60.5505,"EPHEMERIS_TYPE":0,"CLASSIFICATION_TYPE":"U","NORAD_CAT_ID":20625,"ELEMENT_SET_NO":999,"REV_AT_EPOCH":84841,"BSTAR":-9.6382e-5,"MEAN_MOTION_DOT":-2.35e-6,"MEAN_MOTION_DDOT":0},{"OBJECT_NAME":"COSMOS 2084","OBJECT_ID":"1990-055A","EPOCH":"2026-03-09T20:30:53.913888","MEAN_MOTION":15.05653375,"ECCENTRICITY":0.0017016,"INCLINATION":62.7921,"RA_OF_ASC_NODE":335.0153,"ARG_OF_PERICENTER":190.1058,"MEAN_ANOMALY":169.9703,"EPHEMERIS_TYPE":0,"CLASSIFICATION_TYPE":"U","NORAD_CAT_ID":20663,"ELEMENT_SET_NO":999,"REV_AT_EPOCH":93634,"BSTAR":0.00023541,"MEAN_MOTION_DOT":3.224e-5,"MEAN_MOTION_DDOT":0},{"OBJECT_NAME":"SL-6 R/B(2)","OBJECT_ID":"1990-055D","EPOCH":"2026-03-09T20:06:13.500000","MEAN_MOTION":15.03595131,"ECCENTRICITY":0.0024765,"INCLINATION":62.7825,"RA_OF_ASC_NODE":253.3472,"ARG_OF_PERICENTER":347.1256,"MEAN_ANOMALY":12.9207,"EPHEMERIS_TYPE":0,"CLASSIFICATION_TYPE":"U","NORAD_CAT_ID":20666,"ELEMENT_SET_NO":999,"REV_AT_EPOCH":93821,"BSTAR":0.00020856,"MEAN_MOTION_DOT":2.682e-5,"MEAN_MOTION_DDOT":0},{"OBJECT_NAME":"SL-8 R/B","OBJECT_ID":"1990-078B","EPOCH":"2026-03-09T13:48:54.227232","MEAN_MOTION":14.89054414,"ECCENTRICITY":0.0362313,"INCLINATION":82.9005,"RA_OF_ASC_NODE":251.4134,"ARG_OF_PERICENTER":14.3826,"MEAN_ANOMALY":346.7376,"EPHEMERIS_TYPE":0,"CLASSIFICATION_TYPE":"U","NORAD_CAT_ID":20775,"ELEMENT_SET_NO":999,"REV_AT_EPOCH":80928,"BSTAR":0.00050427,"MEAN_MOTION_DOT":0.0001713,"MEAN_MOTION_DDOT":0}]
